OBJECT_NAME,OBJECT_ID,EPOCH,MEAN_MOTION,ECCENTRICITY,INCLINATION,RA_OF_ASC_NODE,ARG_OF_PERICENTER,MEAN_ANOMALY,EPHEMERIS_TYPE,CLASSIFICATION_TYPE,NORAD_CAT_ID,ELEMENT_SET_NO,REV_AT_EPOCH,BSTAR,MEAN_MOTION_DOT,MEAN_MOTION_DDOT
SAUDISAT 1C (SO-50),2002-058C,2026-07-07T18:56:35.534688,14.83089167,.0074738,64.5519,65.2417,258.6284,100.6419,0,U,27607,999,26751,.9805E-4,.682E-5,0
SAUDISAT 2,2004-025F,2026-07-06T22:46:15.147552,14.56695117,.00236555,98.5514,188.4419,234.4243,125.4749,0,U,28371,999,16862,.5855859E-4,.213E-5,0
SAUDISAT 3,2007-012B,2026-07-07T17:27:17.142336,14.71437561,.0015096,98.1464,139.1424,157.2845,202.9033,0,U,31118,999,3076,.43033E-4,.216E-5,0
PISAT,2016-059B,2026-07-07T10:36:50.056128,14.69020153,.00300184,97.8185,188.0251,138.5610,221.7881,0,U,41784,999,52271,.14640444E-3,.817E-5,0
FLYING LAPTOP,2017-042G,2026-07-07T20:21:49.124736,15.01282547,.0019928,97.4782,343.5995,55.6340,304.6766,0,U,42831,999,48955,.24799E-3,.3144E-4,0
SALSAT,2020-068K,2026-07-06T23:06:33.434208,15.30092809,.0008388,97.8858,192.2352,224.1445,135.9125,0,U,46495,999,31838,.20798571E-3,.5977E-4,0
