SAUDISAT 1C (SO-50)     
1 27607U 02058C   26188.78930017  .00000682  00000+0  98050-4 0  9998
2 27607  64.5519  65.2417 0074738 258.6284 100.6419 14.83089167267512
SAUDISAT 2              
1 28371U 04025F   26187.94878643  .00000213  00000+0  58559-4 0  9996
2 28371  98.5514 188.4419 0023655 234.4243 125.4749 14.56695117168623
SAUDISAT 3              
1 31118U 07012B   26188.72728174  .00000216  00000+0  43033-4 0  9992
2 31118  98.1464 139.1424 0015096 157.2845 202.9033 14.71437561 30769
PISAT                   
1 41784U 16059B   26188.44224602  .00000817  00000+0  14640-3 0  9997
2 41784  97.8185 188.0251 0030018 138.5610 221.7881 14.69020153522712
FLYING LAPTOP           
1 42831U 17042G   26188.84848524  .00003144  00000+0  24799-3 0  9995
2 42831  97.4782 343.5995 0019928  55.6340 304.6766 15.01282547489555
SALSAT                  
1 46495U 20068K   26187.96288697  .00005977  00000+0  20799-3 0  9990
2 46495  97.8858 192.2352 0008388 224.1445 135.9125 15.30092809318384
